ONEWEB-0687             
1 61595U 24188B   25117.91668981 -.00988072  00000+0 -61461+0 0  9995
2 61595  87.2165  91.1986 0004551 306.7449 104.4066 14.08247947  5720
ONEWEB-0688             
1 61596U 24188C   25117.91668981 -.01101506  00000+0 -67944+0 0  9998
2 61596  87.1993  91.1281 0002913 339.3987 322.8175 14.09088842  5686
ONEWEB-0689             
1 61597U 24188D   25117.44972606 -.00000506  00000+0 -14639-2 0  9992
2 61597  87.8765 103.9731 0002157  97.7926 262.3447 13.11419719 29961
ONEWEB-0690             
1 61598U 24188E   25117.91668981  .00026192  00000+0  73406-1 0  9996
2 61598  87.8815 103.7982 0001729  66.0321 285.3994 13.11652928  5413
ONEWEB-0691             
1 61599U 24188F   25117.91269682 -.00011743  00000+0 -33133-1 0  9993
2 61599  87.8686 103.8794 0002522  83.0806 277.0609 13.11576758 30056
ONEWEB-0692             
1 61600U 24188G   25117.47555331  .00005848  00000+0  16402-1 0  9993
2 61600  87.8794 103.9771 0001365 111.2172 248.9102 13.11637832 29985
ONEWEB-0693             
1 61601U 24188H   25117.91668981 -.01000763  00000+0 -66597+0 0  9991
2 61601  87.2458  91.2458 0003360 355.5069 304.8177 14.04553602  5661
ONEWEB-0695             
1 61602U 24188J   25117.90920345 -.00000537  00000+0 -15518-2 0  9994
2 61602  87.8800 103.8699 0001988 106.0583 254.0764 13.11418546 30031
